const data = [
"1 25338U 98030A   22077.21153220  .00000099  00000+0  59571-4 0  9993",
"2 25338  98.6553 107.8939 0010141 197.7354 162.3474 14.26098476240267",
"1 27509U 02040B   22076.59101267  .00000139  00000+0  00000+0 0  9998",
"2 27509   7.8685  51.1257 0001377 324.9870  53.3311  1.00278398 71698",
"1 27663U 03005A   22076.26359030  .00000033  00000+0  00000+0 0  9991",
"2 27663  55.5761 276.7192 0126330  40.2878 127.7070  2.00570008140161",
"1 28190U 04009A   22076.61900250 -.00000054  00000+0  00000+0 0  9991",
"2 28190  56.0554 337.6647 0088522 116.3655 106.3405  2.00562141131808",
"1 28474U 04045A   22076.12126370 -.00000067  00000+0  00000+0 0  9999",
"2 28474  55.3198  27.1493 0208455 277.7482 213.5623  2.00569408127281",
"1 28654U 05018A   22077.19644751  .00000161  00000+0  11085-3 0  9999",
"2 28654  98.9577 147.6771 0013682 226.1421 133.8621 14.12700105867188",
"1 28874U 05038A   22076.52370029 -.00000051  00000+0  00000+0 0  9995",
"2 28874  56.1253 335.0985 0137747 274.4044 259.3867  2.00552237120694",
"1 28912U 05049B   22076.65971480  .00000149  00000+0  00000+0 0  9999",
"2 28912   5.8138  66.8617 0000959 257.4760 114.3322  1.00423891 59476",
"1 29155U 06018A   22076.88203953  .00000036  00000+0  00000+0 0  9999",
"2 29155   0.3587  97.3077 0002569 169.6295 287.4505  1.00272960 27816",
"1 29601U 06052A   22075.84203892  .00000035  00000+0  00000+0 0  9999",
"2 29601  55.5805 275.6702 0085006  71.7025 289.2492  2.00574070112250",
"1 32260U 07047A   22076.15190400  .00000033  00000+0  00000+0 0  9992",
"2 32260  53.2874 144.3683 0137433  61.4613 299.9899  2.00553734105667",
"1 32384U 07062A   22076.32453948 -.00000052  00000+0  00000+0 0  9996",
"2 32384  56.2416 335.8557 0017556 132.6800 122.6755  2.00556650104367",
"1 33591U 09005A   22077.18747348  .00000084  00000+0  70772-4 0  9993",
"2 33591  99.1599 109.3582 0014844  85.3231 274.9635 14.12538571675568",
"1 35491U 09033A   22076.63372380 -.00000094  00000+0  00000+0 0  9998",
"2 35491   0.0995  86.4350 0012146 139.9577  72.4139  1.00271993 46545",
"1 36411U 10008A   22076.70079456  .00000053  00000+0  00000+0 0  9995",
"2 36411   0.0696 115.0775 0000889 275.7167 268.6759  1.00263063 44107",
"1 37753U 11036A   22076.55110264 -.00000058  00000+0  00000+0 0  9999",
"2 37753  56.5661  32.2822 0113970  49.9848 156.6737  2.00564790 78135",
"1 37846U 11060A   22076.15736522 -.00000068  00000+0  00000+0 0  9997",
"2 37846  56.9639  23.8454 0004131 352.6317   7.3440  1.70475042 64648",
"1 37847U 11060B   22075.09826889 -.00000069  00000+0  00000+0 0  9997",
"2 37847  56.9643  23.8737 0005316 330.2485 146.2859  1.70475405 64631",
"1 37951U 11074B   22076.90305911 -.00000045  00000+0  00000+0 0  9991",
"2 37951   4.7875  99.4865 0003524 280.2967 287.7623  1.00270191 37621",
"1 38552U 12035B   22076.87166057  .00000061  00000+0  00000+0 0  9996",
"2 38552   1.3990  34.9789 0000928 250.4354 213.1234  1.00276631 35290",
"1 38771U 12049A   22077.19305351  .00000071  00000+0  52557-4 0  9992",
"2 38771  98.6759 138.2701 0000451  34.4351  31.4497 14.21502064492765",
"1 38833U 12053A   22076.74735461  .00000012  00000+0  00000+0 0  9991",
"2 38833  53.5394 207.1059 0122269  45.7627 315.1947  2.00560669 68304",
"1 38857U 12055A   22076.19765892  .00000027  00000+0  00000+0 0  9995",
"2 38857  55.1091 144.2350 0004510 259.1933 100.8369  1.70473678 58671",
"1 38858U 12055B   22074.99475085  .00000018  00000+0  00000+0 0  9994",
"2 38858  55.1089 144.2695 0002095 248.7502 111.3002  1.70473955 58515",
"1 39166U 13023A   22076.10857676 -.00000046  00000+0  00000+0 0  9990",
"2 39166  55.7565 331.5236 0102452  36.4001 324.3456  2.00566499 64739",
"1 39216U 13038B   22077.13313267 -.00000157  00000+0  00000+0 0  9992",
"2 39216   0.0322 254.2020 0001331 117.7966 293.6468  1.00272746 31731",
"1 39533U 14008A   22076.60042288  .00000013  00000+0  00000+0 0  9995",
"2 39533  53.6360 212.6080 0057350 205.8103 153.8610  2.00575500 58546",
"1 39727U 14023A   22077.10401323 -.00000269  00000+0  00000+0 0  9996",
"2 39727   1.2849  73.5353 0002621 326.1915 268.0279  1.00275840546947",
"1 39741U 14026A   22075.88605174 -.00000060  00000+0  00000+0 0  9997",
"2 39741  56.5293  31.8341 0028759 304.5999  55.1176  2.00562518 57383",
"1 40105U 14045A   22076.47562850  .00000033  00000+0  00000+0 0  9992",
"2 40105  54.6701 150.4765 0019515 109.6966 250.5811  2.00571540 54938",
"1 40128U 14050A   22076.04036034 -.00000064  00000+0  00000+0 0  9991",
"2 40128  50.3385 335.9655 1630343 120.7125 256.3553  1.85519246 49503",
"1 40129U 14050B   22076.30169746 -.00000063  00000+0  00000+0 0  9997",
"2 40129  50.3648 335.0128 1627401 121.5297 255.3880  1.85519827 51670",
"1 40294U 14068A   22076.35077010  .00000041  00000+0  00000+0 0  9991",
"2 40294  55.7463  91.5726 0037590  52.0482 308.3512  2.00565117 54060",
"1 40315U 14075A   22076.37925560  .00000048  00000+0  00000+0 0  9994",
"2 40315  63.7098 244.3939 0016350 205.1286  45.5839  2.13101390 56769",
"1 40534U 15013A   22076.48315052  .00000031  00000+0  00000+0 0  9993",
"2 40534  53.7635 268.5027 0068419  20.1013 340.1768  2.00558122 50685",
"1 40544U 15017A   22076.52500209 -.00000068  00000+0  00000+0 0  9994",
"2 40544  56.7593  23.8811 0004015 284.6552  75.2826  1.70475678 42730",
"1 40545U 15017B   22076.19105433 -.00000069  00000+0  00000+0 0  9999",
"2 40545  56.7648  23.9023 0003233 274.3839  85.5613  1.70475523  5773",
"1 40730U 15033A   22076.14799489 -.00000045  00000+0  00000+0 0  9992",
"2 40730  55.2573 330.3947 0073558   5.6233 354.5142  2.00556816 48840",
"1 40732U 15034A   22076.87000343 -.00000001  00000+0  00000+0 0  9991",
"2 40732   0.1876   3.5428 0000430  43.3178  82.5194  1.00260886 24461",
"1 40889U 15045A   22075.95820744  .00000047  00000+0  00000+0 0  9998",
"2 40889  55.6861 264.5150 0006007  29.0665 330.9677  1.70473453 40537",
"1 40890U 15045B   22076.17898357  .00000046  00000+0  00000+0 0  9999",
"2 40890  55.6848 264.5047 0004152  26.6486 333.3719  1.70473535 40560",
"1 41019U 15062A   22076.69495023  .00000040  00000+0  00000+0 0  9996",
"2 41019  55.7363  91.3997 0076892 218.0783 141.4333  2.00562990 46692",
"1 41105U 15074A   22077.29755024 -.00000114  00000+0  00000+0 0  9995",
"2 41105   2.7586  89.1804 0000388 112.6838  66.6516  1.00272891 22957",
"1 41174U 15079A   22076.35419439  .00000028  00000+0  00000+0 0  9992",
"2 41174  55.1251 143.9334 0004328 301.6504  58.3899  1.70474681 38888",
"1 41175U 15079B   22077.16023484  .00000033  00000+0  00000+0 0  9990",
"2 41175  55.1238 143.9100 0003650 299.7129  60.3376  1.70474982 38890",
"1 41328U 16007A   22076.29280811  .00000031  00000+0  00000+0 0  9992",
"2 41328  54.8901 151.1332 0059314 228.5720 130.9818  2.00574640 44692",
"1 41549U 16030A   22076.69309608  .00000045  00000+0  00000+0 0  9998",
"2 41549  55.8294 264.4139 0004045 359.4059   0.5894  1.70474931 36185",
"1 41550U 16030B   22075.22604742  .00000049  00000+0  00000+0 0  9999",
"2 41550  55.8302 264.4557 0002241 339.0854  20.9106  1.70475135 36172",
"1 41752U 16054A   22076.88456885 -.00000079  00000+0  00000+0 0  9999",
"2 41752   0.0571 102.7224 0011864 178.8087 286.2883  1.00271694 20257",
"1 41859U 16069A   22076.64664768  .00000030  00000+0  00000+0 0  9994",
"2 41859  54.7850 144.1293 0004617 287.9327  72.1007  1.70473610 33156",
"1 41860U 16069B   22075.91346910  .00000025  00000+0  00000+0 0  9995",
"2 41860  54.7828 144.1474 0003049 308.5248  51.5271  1.70473666 33171",
"1 41861U 16069C   22076.27894018  .00000027  00000+0  00000+0 0  9995",
"2 41861  54.7851 144.1424 0004447 266.6746  93.3560  1.70473774 33044",
"1 41862U 16069D   22075.83943345  .00000024  00000+0  00000+0 0  9992",
"2 41862  54.7834 144.1492 0003533 269.0970  90.9412  1.70473803 33167",
"1 41866U 16071A   22076.85482182 -.00000250  00000+0  00000+0 0  9991",
"2 41866   0.0800 288.8120 0000983  97.0310  22.0596  1.00271969 19542",
"1 42815U 17040B   22077.17549510 -.00000259  00000+0  00000+0 0  9997",
"2 42815   0.0207 198.2644 0004500  91.4162  42.6904  1.00270066 17316",
"1 43055U 17079A   22074.57041273  .00000051  00000+0  00000+0 0  9999",
"2 43055  55.8065 264.3062 0001689 348.7059  11.2986  1.70474249 26486",
"1 43056U 17079B   22076.62243638  .00000045  00000+0  00000+0 0  9990",
"2 43056  55.8056 264.2494 0002859 314.2920  45.6803  1.70474334 26530",
"1 43057U 17079C   22075.66949496  .00000048  00000+0  00000+0 0  9992",
"2 43057  55.8032 264.2755 0003088 334.3873  25.5995  1.70474267 26501",
"1 43058U 17079D   22075.88949826  .00000047  00000+0  00000+0 0  9993",
"2 43058  55.8044 264.2668 0003039 304.1095  55.8623  1.70474276 26532",
"1 43226U 18022A   22076.77065632  .00000095  00000+0  00000+0 0  9995",
"2 43226   0.0645 296.5936 0000504  77.1072 301.8422  1.00273498 14859",
"1 43564U 18060A   22075.78756926 -.00000069  00000+0  00000+0 0  9997",
"2 43564  57.1418  23.6933 0005015 296.4934  63.4370  1.70475538 22685",
"1 43565U 18060B   22076.59400363 -.00000068  00000+0  00000+0 0  9998",
"2 43565  57.1443  23.6717 0004862 304.9013  55.0352  1.70475480 22746",
"1 43566U 18060C   22076.22798828 -.00000068  00000+0  00000+0 0  9995",
"2 43566  57.1447  23.6836 0004563 306.8703  53.0698  1.70475522 22713",
"1 43567U 18060D   22074.68827400 -.00000070  00000+0  00000+0 0  9996",
"2 43567  57.1444  23.7260 0004713 301.1296  58.8063  1.70475592 22676",
"1 43622U 18072A   22077.21862887  .00000058  00000+0  00000+0 0  9996",
"2 43622  55.4249 114.4192 0008056 281.9539  86.7468  1.86231498 23754",
"1 43623U 18072B   22077.17304980  .00000058  00000+0  00000+0 0  9997",
"2 43623  55.4259 114.4132 0005795 301.1283 127.2473  1.86231498 23755",
"1 43873U 18109A   22076.55777481  .00000032  00000+0  00000+0 0  9998",
"2 43873  55.0704 153.5218 0017820 194.4303 253.6204  2.00567105 23930",
"1 44387U 19038A   22077.21103606  .00000021  00000+0  28378-4 0  9998",
"2 44387  98.7111  38.7756 0001619 132.4723 227.6599 14.23702024140426",
"1 44506U 19056A   22077.28214211 -.00000058  00000+0  00000+0 0  9991",
"2 44506  55.6381  32.6756 0021333 183.1513 331.0722  2.00570785 18935",
"1 44542U 19061A   22076.37776601  .00000028  00000+0  00000+0 0  9998",
"2 44542  54.6142 235.2378 0007892 351.7695   8.1710  1.86231221 16870",
"1 44543U 19061B   22076.50404204  .00000028  00000+0  00000+0 0  9991",
"2 44543  54.6118 235.2036 0005120 352.2071   3.5764  1.86231660 16865",
"1 44793U 19078A   22075.80354826 -.00000082  00000+0  10000-3 0  9998",
"2 44793  55.0018 353.8068 0007504   4.4656  75.2030  1.86232114 15722",
"1 44794U 19078B   22076.51110266 -.00000079  00000+0  00000+0 0  9997",
"2 44794  54.9756 353.7754 0005425   0.6002 104.9483  1.86232971 15738",
"1 44903U 19095A   22076.88500494 -.00000098  00000+0  00000+0 0  9995",
"2 44903   0.0195 157.9602 0001187 214.2091 197.8654  1.00270048  8159",
"1 45854U 20041A   22076.40469638  .00000038  00000+0  00000+0 0  9999",
"2 45854  55.4529  89.9785 0019869 178.0883   0.8989  2.00560073 12899",
"1 46826U 20078A   22077.22112744  .00000029  00000+0  00000+0 0  9993",
"2 46826  54.6292 273.7945 0015561 181.8197 199.4831  2.00565966 10371",
"1 49809U 21116A   22076.60339410 -.00000068  00000+0  00000+0 0  9997",
"2 49809  57.1374  23.5730 0001358 274.2388 270.9927  1.70475623  1710",
"1 49810U 21116B   22076.40985394 -.00000068  00000+0  00000+0 0  9995",
"2 49810  57.1376  23.5763 0001244 305.0084 233.9338  1.70475598  1738",
];

export default data;
